OBJECT_NAME,OBJECT_ID,EPOCH,MEAN_MOTION,ECCENTRICITY,INCLINATION,RA_OF_ASC_NODE,ARG_OF_PERICENTER,MEAN_ANOMALY,EPHEMERIS_TYPE,CLASSIFICATION_TYPE,NORAD_CAT_ID,ELEMENT_SET_NO,REV_AT_EPOCH,BSTAR,MEAN_MOTION_DOT,MEAN_MOTION_DDOT
SKYSAT-C4,2016-058B,2026-06-09T12:18:26.455680,15.48347087,.000085,96.9182,182.6074,103.8243,256.3104,0,U,41771,999,54428,.28324E-3,.14904E-3,0
SKYSAT-C5,2016-058C,2026-06-09T01:58:57.063360,15.34353209,.00019623,97.0478,201.0848,2.7581,357.3674,0,U,41772,999,54250,.19490432E-3,.6409E-4,0
SKYSAT-C2,2016-058D,2026-06-09T11:19:48.213120,15.41894748,.0005068,97.0173,182.8583,87.0765,273.1063,0,U,41773,999,54386,.27555E-3,.11632E-3,0
SKYSAT-C3,2016-058E,2026-06-09T08:14:53.570112,15.52202053,.0001865,96.9014,191.4945,83.6455,276.5012,0,U,41774,999,54489,.31416E-3,.18965E-3,0
ALSAT-1B,2016-059C,2026-06-09T11:48:58.413600,14.72270123,.0007746,97.7756,169.5881,249.7395,110.2981,0,U,41785,999,51944,.95468E-4,.556E-5,0
PATHFINDER 1,2016-059E,2026-06-09T10:22:50.096064,14.67654279,.0027269,97.8166,160.0587,229.1035,130.7808,0,U,41787,999,51857,.99121E-4,.52E-5,0
SCATSAT 1,2016-059H,2026-06-09T10:27:28.659168,14.79509168,.0053282,98.1193,224.1218,273.1382,86.3733,0,U,41790,999,10044,.12902E-3,.93E-5,0
GOKTURK 1A,2016-073A,2026-06-09T12:23:08.751264,14.62768739,.0001459,98.1256,55.3102,78.1567,281.9799,0,U,41875,999,50770,.53633E-4,.227E-5,0
RESOURCESAT-2A,2016-074A,2026-06-09T11:16:06.697344,14.21614968,.0003343,98.7522,234.0369,97.8806,262.2751,0,U,41877,999,49320,.19012E-3,.373E-5,0
CARTOSAT-2D,2017-008A,2026-06-09T12:26:31.418016,15.19274075,.0003629,97.4107,219.9678,265.9981,94.0839,0,U,41948,999,51641,.16434E-3,.3399E-4,0
SENTINEL-2B,2017-013A,2026-06-09T12:21:51.128640,14.30815536,.000122,98.5687,235.3978,84.5630,275.5692,0,U,42063,999,48354,.10231E-3,.225E-5,0
CARTOSAT-2E,2017-036C,2026-06-09T11:17:01.698720,15.19262349,.000299,97.4278,220.3995,355.3482,4.7724,0,U,42767,999,49697,.14699E-3,.3031E-4,0
FORMOSAT-5,2017-049A,2026-06-09T11:12:22.580064,14.50896019,.0012669,98.2253,235.9480,105.6112,254.6482,0,U,42920,999,46555,.46876E-4,.142E-5,0
SENTINEL-5P,2017-064A,2026-06-09T10:45:43.297056,14.19517726,.0000999,98.7923,102.6348,81.8663,278.2626,0,U,42969,999,44846,.45541E-4,.52E-6,0
SKYSAT-C11,2017-068A,2026-06-09T09:54:22.490784,15.57490612,.0001001,97.4342,308.9089,86.7243,273.4127,0,U,42987,999,48203,.32795E-3,.24031E-3,0
SKYSAT-C10,2017-068B,2026-06-09T08:05:27.932640,15.34504232,.0001241,97.4492,297.1095,90.4009,269.7376,0,U,42988,999,48115,.24919E-3,.8249E-4,0
SKYSAT-C9,2017-068C,2026-06-09T09:13:13.912320,15.41368313,.0009038,97.4413,298.0177,158.0534,202.1101,0,U,42989,999,48155,.28729E-3,.11925E-3,0
SKYSAT-C8,2017-068D,2026-06-09T07:41:19.053888,15.36820963,.000156,97.4509,296.8625,98.1178,262.0243,0,U,42990,999,48110,.26308E-3,.9386E-4,0
SKYSAT-C7,2017-068E,2026-06-09T09:05:30.810048,15.36770385,.0007038,97.4520,297.9108,129.5363,230.6504,0,U,42991,999,48117,.2645E-3,.9428E-4,0
SKYSAT-C6,2017-068F,2026-06-09T07:40:26.960736,15.34073641,.0003987,97.4556,297.8494,158.4770,201.6641,0,U,42992,999,48111,.25503E-3,.833E-4,0
CARTOSAT-2F,2018-004A,2026-06-08T10:45:21.335040,15.19309472,.00000418,97.4787,219.1684,272.9757,87.1473,0,U,43111,999,46600,.24903257E-3,.519E-4,0
GAOFEN-1 02,2018-031A,2026-06-09T12:07:00.399936,14.76470935,.0004307,98.0526,223.0533,50.2367,309.9221,0,U,43259,999,44156,.75087E-4,.471E-5,0
GAOFEN-1 03,2018-031B,2026-06-09T11:35:35.710080,14.76457966,.0003828,98.0525,222.8906,94.3543,265.8104,0,U,43260,999,44155,.96776E-4,.622E-5,0
GAOFEN-1 04,2018-031D,2026-06-09T12:38:13.003296,14.76467967,.0002236,98.0527,223.1237,89.3178,270.8288,0,U,43262,999,44155,.83329E-4,.528E-5,0
SENTINEL-3B,2018-039A,2026-06-09T11:24:35.773056,14.26739618,.0000845,98.6249,228.1182,78.9566,281.1709,0,U,43437,999,42302,.58009E-4,.97E-6,0
GAOFEN-5 01,2018-043A,2026-06-09T10:59:00.578112,14.60600196,.0003035,98.4565,131.8818,97.3704,262.7840,0,U,43461,999,43056,.75662E-4,.319E-5,0
GAOFEN-6,2018-048A,2026-06-09T01:47:54.508416,14.76624229,.0011378,97.7757,223.0567,194.8499,165.2379,0,U,43484,999,43219,.12207314E-3,.804E-5,0
GAOFEN-11 01,2018-063A,2026-06-09T12:23:39.793920,15.55072738,.0004028,97.1297,227.4188,24.8591,335.2857,0,U,43585,999,43915,.26025E-3,.17414E-3,0
ICESAT-2,2018-070A,2026-06-09T11:51:14.879808,15.28280281,.0005348,92.0066,288.9018,116.8657,243.3140,0,U,43613,999,43128,.33759E-3,.9302E-4,0
HYSIS,2018-096A,2026-06-09T11:55:56.629344,14.78682269,.000173,97.9838,227.3054,111.0260,249.1136,0,U,43719,999,40628,.20235E-3,.1432E-4,0
KAZSTSAT,2018-099AB,2026-06-09T08:36:20.075616,14.99843960,.0007945,97.4264,192.6432,90.1061,270.1074,0,U,43783,999,41013,.10111E-3,.1197E-4,0
