SKYSAT-C4               
1 41771U 16058B   26160.51280620  .00014904  00000+0  28324-3 0  9998
2 41771  96.9182 182.6074 0000850 103.8243 256.3104 15.48347087544280
SKYSAT-C5               
1 41772U 16058C   26160.08260490  .00006409  00000+0  19490-3 0  9999
2 41772  97.0478 201.0848 0001962   2.7581 357.3674 15.34353209542508
SKYSAT-C2               
1 41773U 16058D   26160.47208580  .00011632  00000+0  27555-3 0  9990
2 41773  97.0173 182.8583 0005068  87.0765 273.1063 15.41894748543867
SKYSAT-C3               
1 41774U 16058E   26160.34367558  .00018965  00000+0  31416-3 0  9995
2 41774  96.9014 191.4945 0001865  83.6455 276.5012 15.52202053544896
ALSAT-1B                
1 41785U 16059C   26160.49234275  .00000556  00000+0  95468-4 0  9998
2 41785  97.7756 169.5881 0007746 249.7395 110.2981 14.72270123519443
PATHFINDER 1            
1 41787U 16059E   26160.43252426  .00000520  00000+0  99121-4 0  9993
2 41787  97.8166 160.0587 0027269 229.1035 130.7808 14.67654279518575
SCATSAT 1               
1 41790U 16059H   26160.43574837  .00000930  00000+0  12902-3 0  9996
2 41790  98.1193 224.1218 0053282 273.1382  86.3733 14.79509168100449
GOKTURK 1A              
1 41875U 16073A   26160.51607351  .00000227  00000+0  53633-4 0  9999
2 41875  98.1256  55.3102 0001459  78.1567 281.9799 14.62768739507704
RESOURCESAT-2A          
1 41877U 16074A   26160.46952196  .00000373  00000+0  19012-3 0  9990
2 41877  98.7522 234.0369 0003343  97.8806 262.2751 14.21614968493205
CARTOSAT-2D             
1 41948U 17008A   26160.51841919  .00003399  00000+0  16434-3 0  9999
2 41948  97.4107 219.9678 0003629 265.9981  94.0839 15.19274075516419
SENTINEL-2B             
1 42063U 17013A   26160.51517510  .00000225  00000+0  10231-3 0  9995
2 42063  98.5687 235.3978 0001220  84.5630 275.5692 14.30815536483544
CARTOSAT-2E             
1 42767U 17036C   26160.47015855  .00003031  00000+0  14699-3 0  9991
2 42767  97.4278 220.3995 0002990 355.3482   4.7724 15.19262349496976
FORMOSAT-5              
1 42920U 17049A   26160.46692801  .00000142  00000+0  46876-4 0  9990
2 42920  98.2253 235.9480 0012669 105.6112 254.6482 14.50896019465558
SENTINEL-5P             
1 42969U 17064A   26160.44841779  .00000052  00000+0  45541-4 0  9996
2 42969  98.7923 102.6348 0000999  81.8663 278.2626 14.19517726448465
SKYSAT-C11              
1 42987U 17068A   26160.41276031  .00024031  00000+0  32795-3 0  9999
2 42987  97.4342 308.9089 0001001  86.7243 273.4127 15.57490612482033
SKYSAT-C10              
1 42988U 17068B   26160.33712885  .00008249  00000+0  24919-3 0  9995
2 42988  97.4492 297.1095 0001241  90.4009 269.7376 15.34504232481159
SKYSAT-C9               
1 42989U 17068C   26160.38418880  .00011925  00000+0  28729-3 0  9997
2 42989  97.4413 298.0177 0009038 158.0534 202.1101 15.41368313481557
SKYSAT-C8               
1 42990U 17068D   26160.32035942  .00009386  00000+0  26308-3 0  9996
2 42990  97.4509 296.8625 0001560  98.1178 262.0243 15.36820963481100
SKYSAT-C7               
1 42991U 17068E   26160.37882882  .00009428  00000+0  26450-3 0  9990
2 42991  97.4520 297.9108 0007038 129.5363 230.6504 15.36770385481173
SKYSAT-C6               
1 42992U 17068F   26160.31975649  .00008330  00000+0  25503-3 0  9998
2 42992  97.4556 297.8494 0003987 158.4770 201.6641 15.34073641481115
CARTOSAT-2F             
1 43111U 18004A   26159.44816360  .00005190  00000+0  24903-3 0  9993
2 43111  97.4787 219.1684 0000041 272.9757  87.1473 15.19309472466006
GAOFEN-1 02             
1 43259U 18031A   26160.50486574  .00000471  00000+0  75087-4 0  9992
2 43259  98.0526 223.0533 0004307  50.2367 309.9221 14.76470935441562
GAOFEN-1 03             
1 43260U 18031B   26160.48305220  .00000622  00000+0  96776-4 0  9995
2 43260  98.0525 222.8906 0003828  94.3543 265.8104 14.76457966441554
GAOFEN-1 04             
1 43262U 18031D   26160.52653939  .00000528  00000+0  83329-4 0  9990
2 43262  98.0527 223.1237 0002236  89.3178 270.8288 14.76467967441550
SENTINEL-3B             
1 43437U 18039A   26160.47541404  .00000097  00000+0  58009-4 0  9997
2 43437  98.6249 228.1182 0000845  78.9566 281.1709 14.26739618423029
GAOFEN-5 01             
1 43461U 18043A   26160.45764558  .00000319  00000+0  75662-4 0  9995
2 43461  98.4565 131.8818 0003035  97.3704 262.7840 14.60600196430568
GAOFEN-6                
1 43484U 18048A   26160.07493644  .00000804  00000+0  12207-3 0  9992
2 43484  97.7757 223.0567 0011378 194.8499 165.2379 14.76624229432191
GAOFEN-11 01            
1 43585U 18063A   26160.51643280  .00017414  00000+0  26025-3 0  9991
2 43585  97.1297 227.4188 0004028  24.8591 335.2857 15.55072738439155
ICESAT-2                
1 43613U 18070A   26160.49392222  .00009302  00000+0  33759-3 0  9994
2 43613  92.0066 288.9018 0005348 116.8657 243.3140 15.28280281431284
HYSIS                   
1 43719U 18096A   26160.49718321  .00001432  00000+0  20235-3 0  9992
2 43719  97.9838 227.3054 0001730 111.0260 249.1136 14.78682269406284
KAZSTSAT                
1 43783U 18099AB  26160.35856569  .00001197  00000+0  10111-3 0  9998
2 43783  97.4264 192.6432 0007945  90.1061 270.1074 14.99843960410131
